CZ-2C R/B               
1 31114U 07010B   26060.83546906  .00000139  00000+0  82977-4 0  9992
2 31114  98.3976 174.5082 0058122 317.8616  41.8101 14.20242937978600
COSMO-SKYMED 1          
1 31598U 07023A   26060.84138145  .00003662  00000+0  32788-3 0  9993
2 31598  97.8867 251.8113 0000876  84.4913 275.6407 14.96461762 13735
COSMOS 2428             
1 31792U 07029A   26060.81805737  .00000098  00000+0  78085-4 0  9991
2 31792  70.9418 219.8653 0008660 285.5367  74.4798 14.12943967962982
SL-16 R/B               
1 31793U 07029B   26060.80638832 -.00000213  00000+0 -85424-4 0  9997
2 31793  70.9755 188.9544 0002429 278.7766 243.1064 14.14834314964256
KORONAS-FOTON           
1 33504U 09003A   26060.65903266  .00012713  00000+0  28616-3 0  9997
2 33504  82.4288 284.2272 0010586 177.1414 182.9895 15.43091870944503
CZ-2C R/B               
1 37731U 11030B   26060.84173806  .00002071  00000+0  26669-3 0  9998
2 37731  97.8528  18.2630 0053181  17.5215  35.6995 14.81184752788934
H-2A R/B                
1 38341U 12025E   26060.83151721  .00004841  00000+0  43949-3 0  9999
2 38341  98.4706  27.2496 0044141 340.1862  19.7640 14.95082823747044
SHIJIAN-16 (SJ-16)      
1 39358U 13057A   26060.85240005  .00000902  00000+0  90989-4 0  9991
2 39358  74.9715 199.9234 0015874 132.8487 227.4038 14.92294183670336
SL-4 R/B                
1 39679U 14021B   26060.25245009  .00017189  00000+0  38115-3 0  9999
2 39679  51.6077  18.4284 0098298  72.2206 288.9475 15.38848335654976
ALOS-2                  
1 39766U 14029A   26060.87348319  .00001479  00000+0  20495-3 0  9997
2 39766  97.9199 159.5837 0001423  98.7901 261.3471 14.79463955635718
YAOGAN-29               
1 41038U 15069A   26060.83274050  .00000641  00000+0  85593-4 0  9994
2 41038  98.0158  89.2410 0002339  49.9632 310.1786 14.82984622554717
ASTRO-H (HITOMI)        
1 41337U 16012A   26060.30496411  .00004008  00000+0  23522-3 0  9998
2 41337  31.0001  50.6521 0010016 247.8561 112.1014 15.09932284550963
HXMT (HUIYAN)           
1 42758U 17034A   26060.87861727  .00006317  00000+0  31840-3 0  9996
2 42758  43.0148  60.0948 0032026 187.7721 172.2634 15.17342507481352
SAOCOM 1A               
1 43641U 18076A   26060.79427686  .00000480  00000+0  66873-4 0  9998
2 43641  97.8886 249.0781 0001272  81.5050 278.6308 14.82157897400198
H-2A R/B                
1 43682U 18084L   26060.55198919  .00023881  00000+0  57507-3 0  9993
2 43682  98.8744 276.2034 0025985  52.6987 307.6618 15.40935172404528
SAOCOM 1B               
1 46265U 20059A   26060.82550331  .00001200  00000+0  15722-3 0  9992
2 46265  97.8885 248.2069 0001509  82.7320 277.4065 14.82165241297584
CSS (TIANHE)            
1 48274U 21035A   26060.77952831  .00016927  00000+0  20477-3 0  9999
2 48274  41.4651 256.2782 0006462 223.4056 136.6275 15.60278755276371
COSMOS 2550             
1 48865U 21056A   26060.30117360 -.00000176  00000+0  47433-6 0  9991
2 48865  67.1423  66.3057 0008328 269.3233  90.6967 15.33838856262177
CZ-2C R/B               
1 52794U 22058K   26060.85998247  .00031563  00000+0  47299-3 0  9991
2 52794  50.1901 358.5453 0042170 167.3831 192.8205 15.53580560208916
CZ-2C R/B               
1 54039U 22132E   26060.55307676  .00047066  00000+0  55356-3 0  9993
2 54039  97.2959  63.6281 0020677 117.0577 243.2794 15.61031126189106
GSLV R/B                
1 54149U 22138AN  26060.83168087  .00004597  00000+0  39841-3 0  9996
2 54149  87.3881 168.9916 0021858 173.9903 186.1595 14.96704323182753
XRISM                   
1 57800U 23137A   26060.84794735  .00007410  00000+0  42230-3 0  9992
2 57800  31.0034 334.3805 0008248 319.9445  40.0585 15.11388993136602
ACS3                    
1 59588U 24077B   26060.79240921  .00025147  00000+0  20397-1 0  9993
2 59588  97.2116   3.6797 0054233  98.1485 262.5835 13.89214165 93101
SZ-21 MODULE            
1 66515U 25246C   26060.60353166  .00039570  00000+0  35055-3 0  9990
2 66515  41.4736 253.1136 0001468 286.2005  73.8675 15.67828728 16808
